[{"OBJECT_NAME":"WILDFIRE 6","OBJECT_ID":"2023-133G","EPOCH":"2026-03-09T22:36:17.475552","MEAN_MOTION":13.85319465,"ECCENTRICITY":0.0004585,"INCLINATION":80.992,"RA_OF_ASC_NODE":102.4593,"ARG_OF_PERICENTER":287.0723,"MEAN_ANOMALY":72.9931,"EPHEMERIS_TYPE":0,"CLASSIFICATION_TYPE":"U","NORAD_CAT_ID":57763,"ELEMENT_SET_NO":999,"REV_AT_EPOCH":12727,"BSTAR":5.6844456e-5,"MEAN_MOTION_DOT":7.6e-7,"MEAN_MOTION_DDOT":0},{"OBJECT_NAME":"FENGYUN 1C DEB","OBJECT_ID":"1999-025CDY","EPOCH":"2026-03-08T06:34:32.822400","MEAN_MOTION":12.79461624,"ECCENTRICITY":0.06881409,"INCLINATION":99.1819,"RA_OF_ASC_NODE":273.9268,"ARG_OF_PERICENTER":142.7902,"MEAN_ANOMALY":222.2992,"EPHEMERIS_TYPE":0,"CLASSIFICATION_TYPE":"U","NORAD_CAT_ID":31725,"ELEMENT_SET_NO":999,"REV_AT_EPOCH":87575,"BSTAR":0.0024413509,"MEAN_MOTION_DOT":1.475e-5,"MEAN_MOTION_DDOT":0}]
